{
  "type": "FeatureCollection",
  "features": [
    {
      "type": "Feature",
      "properties": {
        "norad_id": 66529,
        "name": "STARLINK-35933",
        "group": "last-30-days",
        "lat": -8.039647488150887,
        "lon": 17.445645721840858,
        "alt_km": 444.7424726578902,
        "timestamp": "2025-12-17T13:48:36.278490+00:00",
        "meta_object_name": "STARLINK-35933",
        "meta_object_id": "2025-265P",
        "meta_epoch": "2025-12-17T02:58:12.997920",
        "meta_mean_motion": 15.40715849,
        "meta_eccentricity": 2.71e-05,
        "meta_inclination": 43.0008,
        "meta_ra_of_asc_node": 28.7671,
        "meta_arg_of_pericenter": 227.1467,
        "meta_mean_anomaly": 132.9367,
        "meta_ephemeris_type": 0,
        "meta_classification_type": "U",
        "meta_norad_cat_id": 66529,
        "meta_element_set_no": 999,
        "meta_rev_at_epoch": 443,
        "meta_bstar": 0.00085293713,
        "meta_mean_motion_dot": 0.0003551,
        "meta_mean_motion_ddot": 0,
        "tle_line1": "1 66529U 25265P   25351.12376155  .00035510  00000+0  85294-3 0  9998",
        "tle_line2": "2 66529  43.0008  28.7671 0000271 227.1467 132.9367 15.40715849  4431"
      },
      "geometry": {
        "type": "Point",
        "coordinates": [
          17.445645721840858,
          -8.039647488150887
        ]
      }
    },
    {
      "type": "Feature",
      "properties": {
        "norad_id": 66530,
        "name": "STARLINK-35961",
        "group": "last-30-days",
        "lat": 8.911767760374937,
        "lon": 35.79167574449942,
        "alt_km": 442.15010726512537,
        "timestamp": "2025-12-17T13:48:36.278501+00:00",
        "meta_object_name": "STARLINK-35961",
        "meta_object_id": "2025-265Q",
        "meta_epoch": "2025-12-17T02:51:45.177696",
        "meta_mean_motion": 15.40737525,
        "meta_eccentricity": 8.655e-05,
        "meta_inclination": 43.0001,
        "meta_ra_of_asc_node": 28.7337,
        "meta_arg_of_pericenter": 300.2593,
        "meta_mean_anomaly": 59.8178,
        "meta_ephemeris_type": 0,
        "meta_classification_type": "U",
        "meta_norad_cat_id": 66530,
        "meta_element_set_no": 999,
        "meta_rev_at_epoch": 443,
        "meta_bstar": 0.0010512135,
        "meta_mean_motion_dot": 0.00043916,
        "meta_mean_motion_ddot": 0,
        "tle_line1": "1 66530U 25265Q   25351.11927289  .00043916  00000+0  10512-2 0  9998",
        "tle_line2": "2 66530  43.0001  28.7337 0000865 300.2593  59.8178 15.40737525  4439"
      },
      "geometry": {
        "type": "Point",
        "coordinates": [
          35.79167574449942,
          8.911767760374937
        ]
      }
    },
    {
      "type": "Feature",
      "properties": {
        "norad_id": 66531,
        "name": "STARLINK-35960",
        "group": "last-30-days",
        "lat": 24.750251991338303,
        "lon": 55.69443899529018,
        "alt_km": 440.8606495202748,
        "timestamp": "2025-12-17T13:48:36.278512+00:00",
        "meta_object_name": "STARLINK-35960",
        "meta_object_id": "2025-265R",
        "meta_epoch": "2025-12-17T08:00:04.999680",
        "meta_mean_motion": 15.40678126,
        "meta_eccentricity": 0.00013889,
        "meta_inclination": 43.0008,
        "meta_ra_of_asc_node": 27.4387,
        "meta_arg_of_pericenter": 259.5026,
        "meta_mean_anomaly": 234.4425,
        "meta_ephemeris_type": 0,
        "meta_classification_type": "U",
        "meta_norad_cat_id": 66531,
        "meta_element_set_no": 999,
        "meta_rev_at_epoch": 573,
        "meta_bstar": 0.00024718257,
        "meta_mean_motion_dot": 0.00010028,
        "meta_mean_motion_ddot": 0,
        "tle_line1": "1 66531U 25265R   25351.33339120  .00010028  00000+0  24718-3 0  9996",
        "tle_line2": "2 66531  43.0008  27.4387 0001388 259.5026 234.4425 15.40678126  5737"
      },
      "geometry": {
        "type": "Point",
        "coordinates": [
          55.69443899529018,
          24.750251991338303
        ]
      }
    },
    {
      "type": "Feature",
      "properties": {
        "norad_id": 66532,
        "name": "STARLINK-35914",
        "group": "last-30-days",
        "lat": 37.32436700610595,
        "lon": 80.88981021594765,
        "alt_km": 438.9933672041361,
        "timestamp": "2025-12-17T13:48:36.278522+00:00",
        "meta_object_name": "STARLINK-35914",
        "meta_object_id": "2025-265S",
        "meta_epoch": "2025-12-17T08:00:04.999680",
        "meta_mean_motion": 15.40679374,
        "meta_eccentricity": 0.00013888,
        "meta_inclination": 43.0006,
        "meta_ra_of_asc_node": 27.3788,
        "meta_arg_of_pericenter": 266.5816,
        "meta_mean_anomaly": 252.2455,
        "meta_ephemeris_type": 0,
        "meta_classification_type": "U",
        "meta_norad_cat_id": 66532,
        "meta_element_set_no": 999,
        "meta_rev_at_epoch": 573,
        "meta_bstar": 0.00032966135,
        "meta_mean_motion_dot": 0.00013482,
        "meta_mean_motion_ddot": 0,
        "tle_line1": "1 66532U 25265S   25351.33339120  .00013482  00000+0  32966-3 0  9998",
        "tle_line2": "2 66532  43.0006  27.3788 0001388 266.5816 252.2455 15.40679374  5732"
      },
      "geometry": {
        "type": "Point",
        "coordinates": [
          80.88981021594765,
          37.32436700610595
        ]
      }
    },
    {
      "type": "Feature",
      "properties": {
        "norad_id": 66533,
        "name": "STARLINK-35707",
        "group": "last-30-days",
        "lat": 42.15025819445824,
        "lon": 129.64526925445168,
        "alt_km": 438.1370189283971,
        "timestamp": "2025-12-17T13:48:36.278533+00:00",
        "meta_object_name": "STARLINK-35707",
        "meta_object_id": "2025-265T",
        "meta_epoch": "2025-12-17T08:00:04.999680",
        "meta_mean_motion": 15.4068085,
        "meta_eccentricity": 0.00011402,
        "meta_inclination": 43.0008,
        "meta_ra_of_asc_node": 27.2876,
        "meta_arg_of_pericenter": 263.6186,
        "meta_mean_anomaly": 292.5243,
        "meta_ephemeris_type": 0,
        "meta_classification_type": "U",
        "meta_norad_cat_id": 66533,
        "meta_element_set_no": 999,
        "meta_rev_at_epoch": 573,
        "meta_bstar": 0.00028335095,
        "meta_mean_motion_dot": 0.00011543,
        "meta_mean_motion_ddot": 0,
        "tle_line1": "1 66533U 25265T   25351.33339120  .00011543  00000+0  28335-3 0  9990",
        "tle_line2": "2 66533  43.0008  27.2876 0001140 263.6186 292.5243 15.40680850  5739"
      },
      "geometry": {
        "type": "Point",
        "coordinates": [
          129.64526925445168,
          42.15025819445824
        ]
      }
    },
    {
      "type": "Feature",
      "properties": {
        "norad_id": 66534,
        "name": "STARLINK-35976",
        "group": "last-30-days",
        "lat": 19.944329057061037,
        "lon": -177.14421019571685,
        "alt_km": 441.4814257456901,
        "timestamp": "2025-12-17T13:48:36.278544+00:00",
        "meta_object_name": "STARLINK-35976",
        "meta_object_id": "2025-265U",
        "meta_epoch": "2025-12-17T08:00:04.999680",
        "meta_mean_motion": 15.40657194,
        "meta_eccentricity": 0.00011135,
        "meta_inclination": 43.0003,
        "meta_ra_of_asc_node": 27.1681,
        "meta_arg_of_pericenter": 280.8311,
        "meta_mean_anomaly": 325.1025,
        "meta_ephemeris_type": 0,
        "meta_classification_type": "U",
        "meta_norad_cat_id": 66534,
        "meta_element_set_no": 999,
        "meta_rev_at_epoch": 573,
        "meta_bstar": 0.00076782466,
        "meta_mean_motion_dot": 0.00031858,
        "meta_mean_motion_ddot": 0,
        "tle_line1": "1 66534U 25265U   25351.33339120  .00031858  00000+0  76782-3 0  9991",
        "tle_line2": "2 66534  43.0003  27.1681 0001113 280.8311 325.1025 15.40657194  5735"
      },
      "geometry": {
        "type": "Point",
        "coordinates": [
          -177.14421019571685,
          19.944329057061037
        ]
      }
    },
    {
      "type": "Feature",
      "properties": {
        "norad_id": 66535,
        "name": "STARLINK-35514",
        "group": "last-30-days",
        "lat": 11.888570559246121,
        "lon": -167.31430716321407,
        "alt_km": 441.4628854831326,
        "timestamp": "2025-12-17T13:48:36.278554+00:00",
        "meta_object_name": "STARLINK-35514",
        "meta_object_id": "2025-265V",
        "meta_epoch": "2025-12-17T08:00:04.999680",
        "meta_mean_motion": 15.42089997,
        "meta_eccentricity": 0.0001012,
        "meta_inclination": 43,
        "meta_ra_of_asc_node": 27.1396,
        "meta_arg_of_pericenter": 273.6894,
        "meta_mean_anomaly": 343.869,
        "meta_ephemeris_type": 0,
        "meta_classification_type": "U",
        "meta_norad_cat_id": 66535,
        "meta_element_set_no": 999,
        "meta_rev_at_epoch": 573,
        "meta_bstar": -0.048522921,
        "meta_mean_motion_dot": -0.01902542,
        "meta_mean_motion_ddot": 0,
        "tle_line1": "1 66535U 25265V   25351.33339120 -.01902542  00000+0 -48523-1 0  9992",
        "tle_line2": "2 66535  43.0000  27.1396 0001012 273.6894 343.8690 15.42089997  5737"
      },
      "geometry": {
        "type": "Point",
        "coordinates": [
          -167.31430716321407,
          11.888570559246121
        ]
      }
    }
  ]
}